[{"OBJECT_NAME":"STARLINK-31510","OBJECT_ID":"2024-076M","EPOCH":"2026-03-09T04:18:28.050048","MEAN_MOTION":15.27587823,"ECCENTRICITY":6.423e-5,"INCLINATION":43.0034,"RA_OF_ASC_NODE":8.518,"ARG_OF_PERICENTER":282.3748,"MEAN_ANOMALY":77.7032,"EPHEMERIS_TYPE":0,"CLASSIFICATION_TYPE":"U","NORAD_CAT_ID":59575,"ELEMENT_SET_NO":999,"REV_AT_EPOCH":10646,"BSTAR":0.0001085808,"MEAN_MOTION_DOT":2.728e-5,"MEAN_MOTION_DDOT":0},{"OBJECT_NAME":"POEM","OBJECT_ID":"2022-072E","EPOCH":"2026-03-08T08:06:01.299456","MEAN_MOTION":15.22764653,"ECCENTRICITY":0.00236837,"INCLINATION":9.9515,"RA_OF_ASC_NODE":116.6548,"ARG_OF_PERICENTER":142.2805,"MEAN_ANOMALY":217.9074,"EPHEMERIS_TYPE":0,"CLASSIFICATION_TYPE":"U","NORAD_CAT_ID":52939,"ELEMENT_SET_NO":999,"REV_AT_EPOCH":20410,"BSTAR":0.00045784559,"MEAN_MOTION_DOT":0.00012084,"MEAN_MOTION_DDOT":0}]
